[
  {
    "COMMENT": "GENERATED VIA SPACETRACK.ORG API",
    "ORIGINATOR": "18 SPCS",
    "NORAD_CAT_ID": "54754",
    "OBJECT_NAME": "SWOT",
    "OBJECT_TYPE": "PAYLOAD",
    "CLASSIFICATION_TYPE": "U",
    "INTLDES": "22173A",
    "EPOCH": "2023-06-02 05:20:33",
    "EPOCH_MICROSECONDS": "164448",
    "MEAN_MOTION": "14.09855645",
    "ECCENTRICITY": "0.0000939",
    "INCLINATION": "77.608",
    "RA_OF_ASC_NODE": "95.8739",
    "ARG_OF_PERICENTER": "187.4466",
    "MEAN_ANOMALY": "172.6677",
    "EPHEMERIS_TYPE": "0",
    "ELEMENT_SET_NO": "999",
    "REV_AT_EPOCH": "2363",
    "BSTAR": "0.00011118",
    "MEAN_MOTION_DOT": "0.00000193",
    "MEAN_MOTION_DDOT": "0",
    "FILE": "3923342",
    "TLE_LINE0": "0 SWOT",
    "TLE_LINE1": "1 54754U 22173A   23153.22260607  .00000193  00000-0  11118-3 0  9997",
    "TLE_LINE2": "2 54754  77.6080  95.8739 0000939 187.4466 172.6677 14.09855645 23630",
    "OBJECT_ID": "2022-173A",
    "OBJECT_NUMBER": "54754",
    "SEMIMAJOR_AXIS": "7238.003",
    "PERIOD": "102.138",
    "APOGEE": "860.547",
    "PERIGEE": "859.188",
    "DECAYED": "0"
  },
  {
    "COMMENT": "GENERATED VIA SPACETRACK.ORG API",
    "ORIGINATOR": "18 SPCS",
    "NORAD_CAT_ID": "54754",
    "OBJECT_NAME": "SWOT",
    "OBJECT_TYPE": "PAYLOAD",
    "CLASSIFICATION_TYPE": "U",
    "INTLDES": "22173A",
    "EPOCH": "2023-06-03 10:17:45",
    "EPOCH_MICROSECONDS": "19392",
    "MEAN_MOTION": "14.09851094",
    "ECCENTRICITY": "0.0000943",
    "INCLINATION": "77.6082",
    "RA_OF_ASC_NODE": "94.2189",
    "ARG_OF_PERICENTER": "187.3721",
    "MEAN_ANOMALY": "172.7422",
    "EPHEMERIS_TYPE": "0",
    "ELEMENT_SET_NO": "999",
    "REV_AT_EPOCH": "2380",
    "BSTAR": "0.00009156",
    "MEAN_MOTION_DOT": "0.00000158",
    "MEAN_MOTION_DDOT": "0",
    "FILE": "3924025",
    "TLE_LINE0": "0 SWOT",
    "TLE_LINE1": "1 54754U 22173A   23154.42899328  .00000158  00000-0  91560-4 0  9999",
    "TLE_LINE2": "2 54754  77.6082  94.2189 0000943 187.3721 172.7422 14.09851094 23804",
    "OBJECT_ID": "2022-173A",
    "OBJECT_NUMBER": "54754",
    "SEMIMAJOR_AXIS": "7238.018",
    "PERIOD": "102.138",
    "APOGEE": "860.566",
    "PERIGEE": "859.201",
    "DECAYED": "0"
  },
  {
    "COMMENT": "GENERATED VIA SPACETRACK.ORG API",
    "ORIGINATOR": "18 SPCS",
    "NORAD_CAT_ID": "54754",
    "OBJECT_NAME": "SWOT",
    "OBJECT_TYPE": "PAYLOAD",
    "CLASSIFICATION_TYPE": "U",
    "INTLDES": "22173A",
    "EPOCH": "2023-06-03 13:42:07",
    "EPOCH_MICROSECONDS": "586496",
    "MEAN_MOTION": "14.09851143",
    "ECCENTRICITY": "0.0000944",
    "INCLINATION": "77.6082",
    "RA_OF_ASC_NODE": "94.0242",
    "ARG_OF_PERICENTER": "187.0698",
    "MEAN_ANOMALY": "173.0446",
    "EPHEMERIS_TYPE": "0",
    "ELEMENT_SET_NO": "999",
    "REV_AT_EPOCH": "2382",
    "BSTAR": "0.000091303",
    "MEAN_MOTION_DOT": "0.00000158",
    "MEAN_MOTION_DDOT": "0",
    "FILE": "3924076",
    "TLE_LINE0": "0 SWOT",
    "TLE_LINE1": "1 54754U 22173A   23154.57092114  .00000158  00000-0  91303-4 0  9998",
    "TLE_LINE2": "2 54754  77.6082  94.0242 0000944 187.0698 173.0446 14.09851143 23820",
    "OBJECT_ID": "2022-173A",
    "OBJECT_NUMBER": "54754",
    "SEMIMAJOR_AXIS": "7238.018",
    "PERIOD": "102.138",
    "APOGEE": "860.566",
    "PERIGEE": "859.200",
    "DECAYED": "0"
  },
  {
    "COMMENT": "GENERATED VIA SPACETRACK.ORG API",
    "ORIGINATOR": "18 SPCS",
    "NORAD_CAT_ID": "54754",
    "OBJECT_NAME": "SWOT",
    "OBJECT_TYPE": "PAYLOAD",
    "CLASSIFICATION_TYPE": "U",
    "INTLDES": "22173A",
    "EPOCH": "2023-06-03 22:13:03",
    "EPOCH_MICROSECONDS": "998208",
    "MEAN_MOTION": "14.09851284",
    "ECCENTRICITY": "0.0000936",
    "INCLINATION": "77.6083",
    "RA_OF_ASC_NODE": "93.5374",
    "ARG_OF_PERICENTER": "186.9221",
    "MEAN_ANOMALY": "173.1923",
    "EPHEMERIS_TYPE": "0",
    "ELEMENT_SET_NO": "999",
    "REV_AT_EPOCH": "2387",
    "BSTAR": "0.000090966",
    "MEAN_MOTION_DOT": "0.00000157",
    "MEAN_MOTION_DDOT": "0",
    "FILE": "3924324",
    "TLE_LINE0": "0 SWOT",
    "TLE_LINE1": "1 54754U 22173A   23154.92574072  .00000157  00000-0  90966-4 0  9998",
    "TLE_LINE2": "2 54754  77.6083  93.5374 0000936 186.9221 173.1923 14.09851284 23874",
    "OBJECT_ID": "2022-173A",
    "OBJECT_NUMBER": "54754",
    "SEMIMAJOR_AXIS": "7238.018",
    "PERIOD": "102.138",
    "APOGEE": "860.560",
    "PERIGEE": "859.205",
    "DECAYED": "0"
  },
  {
    "COMMENT": "GENERATED VIA SPACETRACK.ORG API",
    "ORIGINATOR": "18 SPCS",
    "NORAD_CAT_ID": "54754",
    "OBJECT_NAME": "SWOT",
    "OBJECT_TYPE": "PAYLOAD",
    "CLASSIFICATION_TYPE": "U",
    "INTLDES": "22173A",
    "EPOCH": "2023-06-04 13:32:45",
    "EPOCH_MICROSECONDS": "532032",
    "MEAN_MOTION": "14.09851626",
    "ECCENTRICITY": "0.0000929",
    "INCLINATION": "77.6084",
    "RA_OF_ASC_NODE": "92.6612",
    "ARG_OF_PERICENTER": "186.7434",
    "MEAN_ANOMALY": "173.371",
    "EPHEMERIS_TYPE": "0",
    "ELEMENT_SET_NO": "999",
    "REV_AT_EPOCH": "2396",
    "BSTAR": "0.00011869",
    "MEAN_MOTION_DOT": "0.00000206",
    "MEAN_MOTION_DDOT": "0",
    "FILE": "3924842",
    "TLE_LINE0": "0 SWOT",
    "TLE_LINE1": "1 54754U 22173A   23155.56441588  .00000206  00000-0  11869-3 0  9993",
    "TLE_LINE2": "2 54754  77.6084  92.6612 0000929 186.7434 173.3710 14.09851626 23962",
    "OBJECT_ID": "2022-173A",
    "OBJECT_NUMBER": "54754",
    "SEMIMAJOR_AXIS": "7238.016",
    "PERIOD": "102.138",
    "APOGEE": "860.554",
    "PERIGEE": "859.209",
    "DECAYED": "0"
  },
  {
    "COMMENT": "GENERATED VIA SPACETRACK.ORG API",
    "ORIGINATOR": "18 SPCS",
    "NORAD_CAT_ID": "54754",
    "OBJECT_NAME": "SWOT",
    "OBJECT_TYPE": "PAYLOAD",
    "CLASSIFICATION_TYPE": "U",
    "INTLDES": "22173A",
    "EPOCH": "2023-06-04 20:21:30",
    "EPOCH_MICROSECONDS": "655872",
    "MEAN_MOTION": "14.09851681",
    "ECCENTRICITY": "0.0000928",
    "INCLINATION": "77.6084",
    "RA_OF_ASC_NODE": "92.2718",
    "ARG_OF_PERICENTER": "186.6905",
    "MEAN_ANOMALY": "173.424",
    "EPHEMERIS_TYPE": "0",
    "ELEMENT_SET_NO": "999",
    "REV_AT_EPOCH": "2400",
    "BSTAR": "0.00010188",
    "MEAN_MOTION_DOT": "0.00000176",
    "MEAN_MOTION_DDOT": "0",
    "FILE": "3925126",
    "TLE_LINE0": "0 SWOT",
    "TLE_LINE1": "1 54754U 22173A   23155.84827148  .00000176  00000-0  10188-3 0  9993",
    "TLE_LINE2": "2 54754  77.6084  92.2718 0000928 186.6905 173.4240 14.09851681 24002",
    "OBJECT_ID": "2022-173A",
    "OBJECT_NUMBER": "54754",
    "SEMIMAJOR_AXIS": "7238.016",
    "PERIOD": "102.138",
    "APOGEE": "860.553",
    "PERIGEE": "859.210",
    "DECAYED": "0"
  },
  {
    "COMMENT": "GENERATED VIA SPACETRACK.ORG API",
    "ORIGINATOR": "18 SPCS",
    "NORAD_CAT_ID": "54754",
    "OBJECT_NAME": "SWOT",
    "OBJECT_TYPE": "PAYLOAD",
    "CLASSIFICATION_TYPE": "U",
    "INTLDES": "22173A",
    "EPOCH": "2023-06-04 22:03:41",
    "EPOCH_MICROSECONDS": "935968",
    "MEAN_MOTION": "14.09851756",
    "ECCENTRICITY": "0.0000928",
    "INCLINATION": "77.6084",
    "RA_OF_ASC_NODE": "92.1744",
    "ARG_OF_PERICENTER": "186.1736",
    "MEAN_ANOMALY": "173.941",
    "EPHEMERIS_TYPE": "0",
    "ELEMENT_SET_NO": "999",
    "REV_AT_EPOCH": "2401",
    "BSTAR": "0.00011376",
    "MEAN_MOTION_DOT": "0.00000197",
    "MEAN_MOTION_DDOT": "0",
    "FILE": "3925173",
    "TLE_LINE0": "0 SWOT",
    "TLE_LINE1": "1 54754U 22173A   23155.91923537  .00000197  00000-0  11376-3 0  9993",
    "TLE_LINE2": "2 54754  77.6084  92.1744 0000928 186.1736 173.9410 14.09851756 24015",
    "OBJECT_ID": "2022-173A",
    "OBJECT_NUMBER": "54754",
    "SEMIMAJOR_AXIS": "7238.016",
    "PERIOD": "102.138",
    "APOGEE": "860.553",
    "PERIGEE": "859.209",
    "DECAYED": "0"
  },
  {
    "COMMENT": "GENERATED VIA SPACETRACK.ORG API",
    "ORIGINATOR": "18 SPCS",
    "NORAD_CAT_ID": "54754",
    "OBJECT_NAME": "SWOT",
    "OBJECT_TYPE": "PAYLOAD",
    "CLASSIFICATION_TYPE": "U",
    "INTLDES": "22173A",
    "EPOCH": "2023-06-05 13:23:23",
    "EPOCH_MICROSECONDS": "455968",
    "MEAN_MOTION": "14.09852074",
    "ECCENTRICITY": "0.0000919",
    "INCLINATION": "77.6085",
    "RA_OF_ASC_NODE": "91.2982",
    "ARG_OF_PERICENTER": "185.4514",
    "MEAN_ANOMALY": "174.6633",
    "EPHEMERIS_TYPE": "0",
    "ELEMENT_SET_NO": "999",
    "REV_AT_EPOCH": "2410",
    "BSTAR": "0.00012449",
    "MEAN_MOTION_DOT": "0.00000216",
    "MEAN_MOTION_DDOT": "0",
    "FILE": "3925691",
    "TLE_LINE0": "0 SWOT",
    "TLE_LINE1": "1 54754U 22173A   23156.55791037  .00000216  00000-0  12449-3 0  9996",
    "TLE_LINE2": "2 54754  77.6085  91.2982 0000919 185.4514 174.6633 14.09852074 24105",
    "OBJECT_ID": "2022-173A",
    "OBJECT_NUMBER": "54754",
    "SEMIMAJOR_AXIS": "7238.015",
    "PERIOD": "102.138",
    "APOGEE": "860.545",
    "PERIGEE": "859.215",
    "DECAYED": "0"
  },
  {
    "COMMENT": "GENERATED VIA SPACETRACK.ORG API",
    "ORIGINATOR": "18 SPCS",
    "NORAD_CAT_ID": "54754",
    "OBJECT_NAME": "SWOT",
    "OBJECT_TYPE": "PAYLOAD",
    "CLASSIFICATION_TYPE": "U",
    "INTLDES": "22173A",
    "EPOCH": "2023-06-05 20:12:08",
    "EPOCH_MICROSECONDS": "568576",
    "MEAN_MOTION": "14.09852252",
    "ECCENTRICITY": "0.0000915",
    "INCLINATION": "77.6085",
    "RA_OF_ASC_NODE": "90.9088",
    "ARG_OF_PERICENTER": "185.3084",
    "MEAN_ANOMALY": "174.8063",
    "EPHEMERIS_TYPE": "0",
    "ELEMENT_SET_NO": "999",
    "REV_AT_EPOCH": "2414",
    "BSTAR": "0.00012901",
    "MEAN_MOTION_DOT": "0.00000224",
    "MEAN_MOTION_DDOT": "0",
    "FILE": "3925751",
    "TLE_LINE0": "0 SWOT",
    "TLE_LINE1": "1 54754U 22173A   23156.84176584  .00000224  00000-0  12901-3 0  9994",
    "TLE_LINE2": "2 54754  77.6085  90.9088 0000915 185.3084 174.8063 14.09852252 24146",
    "OBJECT_ID": "2022-173A",
    "OBJECT_NUMBER": "54754",
    "SEMIMAJOR_AXIS": "7238.014",
    "PERIOD": "102.138",
    "APOGEE": "860.542",
    "PERIGEE": "859.217",
    "DECAYED": "0"
  }
]